[{"OBJECT_NAME":"STARLINK-32393","OBJECT_ID":"2024-202T","EPOCH":"2026-03-09T11:20:01.706208","MEAN_MOTION":15.27579329,"ECCENTRICITY":0.00017329,"INCLINATION":43.0016,"RA_OF_ASC_NODE":239.2823,"ARG_OF_PERICENTER":279.9745,"MEAN_ANOMALY":80.0911,"EPHEMERIS_TYPE":0,"CLASSIFICATION_TYPE":"U","NORAD_CAT_ID":61862,"ELEMENT_SET_NO":999,"REV_AT_EPOCH":7530,"BSTAR":2.1413949e-5,"MEAN_MOTION_DOT":3.27e-6,"MEAN_MOTION_DDOT":0},{"OBJECT_NAME":"HERMES-3","OBJECT_ID":"2025-052BR","EPOCH":"2026-03-09T22:30:01.073952","MEAN_MOTION":15.30039786,"ECCENTRICITY":0.00079928,"INCLINATION":97.3987,"RA_OF_ASC_NODE":324.6131,"ARG_OF_PERICENTER":112.9583,"MEAN_ANOMALY":247.2502,"EPHEMERIS_TYPE":0,"CLASSIFICATION_TYPE":"U","NORAD_CAT_ID":63835,"ELEMENT_SET_NO":999,"REV_AT_EPOCH":5486,"BSTAR":0.0006995793,"MEAN_MOTION_DOT":0.00020316,"MEAN_MOTION_DDOT":0}]
